NORAD_CAT_ID,OBJECT_NAME,OBJECT_TYPE,EPOCH,MEAN_MOTION,ECCENTRICITY,INCLINATION,RA_OF_ASC_NODE,ARG_OF_PERICENTER,MEAN_ANOMALY,BSTAR,MEAN_MOTION_DOT,MEAN_MOTION_DDOT,TLE_LINE0,TLE_LINE1,TLE_LINE2,SEMIMAJOR_AXIS,PERIOD,APOGEE,PERIGEE,DECAYED
53639.0,STARLINK-4422,PAYLOAD,2023-07-31 01:27:09,15.0883639,0.0001137,53.2154,180.4254,99.6774,260.4346,2.6647e-05,1.36e-06,0.0,0 STARLINK-4422,1 53639U 22104BD  23212.06053191  .00000136  00000-0  26647-4 0  9999,2 53639  53.2154 180.4254 0001137  99.6774 260.4346 15.08836390 51392,6917.891,95.438,540.543,538.97,0.0
53639.0,STARLINK-4422,PAYLOAD,2023-08-01 02:53:20,15.08840726,0.0001195,53.2164,175.6713,100.9959,259.1168,2.6562e-05,1.35e-06,0.0,0 STARLINK-4422,1 53639U 22104BD  23213.12037056  .00000135  00000-0  26562-4 0  9994,2 53639  53.2164 175.6713 0001195 100.9959 259.1168 15.08840726 51557,6917.878,95.438,540.57,538.916,0.0
53639.0,STARLINK-4422,PAYLOAD,2023-08-02 01:08:44,15.08831589,0.0001028,53.2152,171.5056,83.1411,276.9698,-1.7877e-05,-5.72e-06,0.0,0 STARLINK-4422,1 53639U 22104BD  23214.04773939 -.00000572  00000-0 -17877-4 0  9999,2 53639  53.2152 171.5056 0001028  83.1411 276.9698 15.08831589 51696,6917.906,95.438,540.482,539.06,0.0
53639.0,STARLINK-4422,PAYLOAD,2023-08-02 07:30:16,15.08836836,0.0001097,53.2162,170.3151,86.4742,273.6375,4.2224e-05,3.84e-06,0.0,0 STARLINK-4422,1 53639U 22104BD  23214.31269509  .00000384  00000-0  42224-4 0  9995,2 53639  53.2162 170.3151 0001097  86.4742 273.6375 15.08836836 51730,6917.89,95.438,540.514,538.996,0.0
53639.0,STARLINK-4422,PAYLOAD,2023-08-03 07:21:03,15.08846532,0.0001001,53.2158,165.8561,88.5295,271.5811,0.00011919,1.61e-05,0.0,0 STARLINK-4422,1 53639U 22104BD  23215.30628944  .00001610  00000-0  11919-3 0  9996,2 53639  53.2158 165.8561 0001001  88.5295 271.5811 15.08846532 51882,6917.86,95.437,540.418,539.033,0.0
53639.0,STARLINK-4422,PAYLOAD,2023-08-04 02:25:42,15.08835898,0.000101,53.2157,162.288,88.1982,271.9126,2.7387e-05,1.48e-06,0.0,0 STARLINK-4422,1 53639U 22104BD  23216.10118211  .00000148  00000-0  27387-4 0  9998,2 53639  53.2157 162.2880 0001010  88.1982 271.9126 15.08835898 52006,6917.893,95.438,540.457,539.059,0.0
53639.0,STARLINK-4422,PAYLOAD,2023-08-05 02:16:28,15.08847796,0.0001053,53.2156,157.8275,87.3761,272.7351,9.1794e-05,1.174e-05,0.0,0 STARLINK-4422,1 53639U 22104BD  23217.09477564  .00001174  00000-0  91794-4 0  9999,2 53639  53.2156 157.8275 0001053  87.3761 272.7351 15.08847796 52151,6917.857,95.437,540.45,538.993,0.0
53639.0,STARLINK-4422,PAYLOAD,2023-08-06 02:07:15,15.08845813,0.0001069,53.2159,153.3662,88.4844,271.627,0.0001292,1.769e-05,0.0,0 STARLINK-4422,1 53639U 22104BD  23218.08837456  .00001769  00000-0  12920-3 0  9992,2 53639  53.2159 153.3662 0001069  88.4844 271.6270 15.08845813 52309,6917.863,95.437,540.467,538.988,0.0
53639.0,STARLINK-4422,PAYLOAD,2023-08-06 13:14:58,15.08835712,0.0001133,53.2163,151.2854,81.3447,278.7674,4.6807e-05,4.57e-06,0.0,0 STARLINK-4422,1 53639U 22104BD  23218.55206250  .00000457  00000-0  46807-4 0  9991,2 53639  53.2163 151.2854 0001133  81.3447 278.7674 15.08835712 52377,6917.893,95.438,540.542,538.975,0.0
53639.0,STARLINK-4422,PAYLOAD,2023-08-08 00:13:26,15.08852635,0.000114,53.2158,144.7443,86.6067,273.5055,7.9469e-05,9.78e-06,0.0,0 STARLINK-4422,1 53639U 22104BD  23220.00933137  .00000978  00000-0  79469-4 0  9993,2 53639  53.2158 144.7443 0001140  86.6067 273.5055 15.08852635 52599,6917.842,95.437,540.495,538.918,0.0
53639.0,STARLINK-4422,PAYLOAD,2023-08-08 17:42:41,15.08839093,0.0001182,53.2159,141.4722,92.7668,267.3459,0.00014554,2.029e-05,0.0,0 STARLINK-4422,1 53639U 22104BD  23220.73797673  .00002029  00000-0  14554-3 0  9998,2 53639  53.2159 141.4722 0001182  92.7668 267.3459 15.08839093 52700,6917.883,95.438,540.566,538.93,0.0
53639.0,STARLINK-4422,PAYLOAD,2023-08-09 11:11:56,15.08830068,0.0001152,53.216,138.2019,83.8668,276.2455,-7.0158e-07,-2.99e-06,0.0,0 STARLINK-4422,1 53639U 22104BD  23221.46662759 -.00000299  00000-0 -70158-6 0  9999,2 53639  53.2160 138.2019 0001152  83.8668 276.2455 15.08830068 52813,6917.911,95.438,540.573,538.979,0.0
53639.0,STARLINK-4422,PAYLOAD,2023-08-10 03:05:47,15.08845782,0.0001324,53.2176,135.2268,93.2633,266.8511,-5.7541e-05,-1.204e-05,0.0,0 STARLINK-4422,1 53639U 22104BD  23222.12901949 -.00001204  00000-0 -57541-4 0  9996,2 53639  53.2176 135.2268 0001324  93.2633 266.8511 15.08845782 52919,6917.863,95.437,540.644,538.812,0.0
53639.0,STARLINK-4422,PAYLOAD,2023-08-11 01:21:11,15.08836548,0.0001413,53.2173,131.0638,80.3063,279.8089,3.7652e-05,3.11e-06,0.0,0 STARLINK-4422,1 53639U 22104BD  23223.05638555  .00000311  00000-0  37652-4 0  9996,2 53639  53.2173 131.0638 0001413  80.3063 279.8089 15.08836548 53054,6917.891,95.438,540.733,538.778,0.0
53639.0,STARLINK-4422,PAYLOAD,2023-08-11 17:15:04,15.08792898,0.0002119,53.2173,128.093,80.1436,279.9795,0.00077171,0.00011999,0.0,0 STARLINK-4422,1 53639U 22104BD  23223.71880752  .00011999  00000-0  77171-3 0  9990,2 53639  53.2173 128.0930 0002119  80.1436 279.9795 15.08792898 53156,6918.024,95.441,541.355,538.423,0.0
53639.0,STARLINK-4422,PAYLOAD,2023-08-12 02:47:21,15.08846388,0.0001005,53.2156,126.3054,96.0623,264.0484,5.6225e-05,6.07e-06,0.0,0 STARLINK-4422,1 53639U 22104BD  23224.11621957  .00000607  00000-0  56225-4 0  9997,2 53639  53.2156 126.3054 0001005  96.0623 264.0484 15.08846388 53213,6917.861,95.437,540.421,539.031,0.0
53639.0,STARLINK-4422,PAYLOAD,2023-08-12 17:05:50,15.08845006,0.0001175,53.216,123.6332,94.9457,265.1669,6.4622e-06,-1.85e-06,0.0,0 STARLINK-4422,1 53639U 22104BD  23224.71238518 -.00000185  00000-0  64622-5 0  9993,2 53639  53.2160 123.6332 0001175  94.9457 265.1669 15.08845006 53300,6917.865,95.437,540.543,538.917,0.0
53639.0,STARLINK-4422,PAYLOAD,2023-08-13 04:13:31,15.08851635,0.0001498,53.2158,121.5532,77.2943,282.8216,7.1521e-05,8.51e-06,0.0,0 STARLINK-4422,1 53639U 22104BD  23225.17605838  .00000851  00000-0  71521-4 0  9991,2 53639  53.2158 121.5532 0001498  77.2943 282.8216 15.08851635 53374,6917.845,95.437,540.746,538.674,0.0
53639.0,STARLINK-4422,PAYLOAD,2023-08-14 00:53:32,15.08843766,0.000135,53.2161,117.6837,91.0957,269.0189,6.3584e-05,7.24e-06,0.0,0 STARLINK-4422,1 53639U 22104BD  23226.03718251  .00000724  00000-0  63584-4 0  9990,2 53639  53.2161 117.6837 0001350  91.0957 269.0189 15.08843766 53505,6917.869,95.437,540.668,538.8,0.0
53639.0,STARLINK-4422,PAYLOAD,2023-08-15 02:19:42,15.08844946,0.0001265,53.2175,112.9225,106.0734,254.0398,-4.49e-05,-1.002e-05,0.0,0 STARLINK-4422,1 53639U 22104BD  23227.09702249 -.00001002  00000-0 -44900-4 0  9990,2 53639  53.2175 112.9225 0001265 106.0734 254.0398 15.08844946 53668,6917.865,95.437,540.605,538.855,0.0
53639.0,STARLINK-4422,PAYLOAD,2023-08-17 02:01:17,15.08843388,0.0001808,53.2183,104.0032,96.2389,263.8809,3.5989e-05,2.85e-06,0.0,0 STARLINK-4422,1 53639U 22104BD  23229.08422567  .00000285  00000-0  35989-4 0  9990,2 53639  53.2183 104.0032 0001808  96.2389 263.8809 15.08843388 53961,6917.87,95.437,540.986,538.484,0.0
53639.0,STARLINK-4422,PAYLOAD,2023-08-18 00:16:41,15.08838923,0.0001333,53.2174,99.843,95.9344,264.18,2.9679e-05,1.84e-06,0.0,0 STARLINK-4422,1 53639U 22104BD  23230.01159022  .00000184  00000-0  29679-4 0  9995,2 53639  53.2174  99.8430 0001333  95.9344 264.1800 15.08838923 54105,6917.884,95.438,540.671,538.827,0.0
53639.0,STARLINK-4422,PAYLOAD,2023-08-19 01:42:51,15.08846271,0.0001181,53.2157,95.0808,120.5732,239.5377,5.987e-05,6.65e-06,0.0,0 STARLINK-4422,1 53639U 22104BD  23231.07142464  .00000665  00000-0  59870-4 0  9994,2 53639  53.2157  95.0808 0001181 120.5732 239.5377 15.08846271 54267,6917.861,95.437,540.543,538.909,0.0
53639.0,STARLINK-4422,PAYLOAD,2023-08-19 17:36:43,15.0883414,0.0001361,53.2173,92.1113,93.3826,266.7322,5.306e-05,5.57e-06,0.0,0 STARLINK-4422,1 53639U 22104BD  23231.73383584  .00000557  00000-0  53060-4 0  9992,2 53639  53.2173  92.1113 0001361  93.3826 266.7322 15.08834140 54368,6917.898,95.438,540.705,538.822,0.0
53639.0,STARLINK-4422,PAYLOAD,2023-08-19 23:58:15,15.08841406,0.0001413,53.2166,90.9214,86.7844,273.331,6.1938e-05,6.98e-06,0.0,0 STARLINK-4422,1 53639U 22104BD  23231.99879200  .00000698  00000-0  61938-4 0  9994,2 53639  53.2166  90.9214 0001413  86.7844 273.3310 15.08841406 54401,6917.876,95.437,540.719,538.764,0.0
53639.0,STARLINK-4422,PAYLOAD,2023-08-20 17:27:30,15.08833552,0.0001916,53.2157,87.6514,91.7121,268.4091,0.00012606,1.718e-05,0.0,0 STARLINK-4422,1 53639U 22104BD  23232.72743680  .00001718  00000-0  12606-3 0  9999,2 53639  53.2157  87.6514 0001916  91.7121 268.4091 15.08833552 54515,6917.9,95.438,541.091,538.44,0.0
53639.0,STARLINK-4422,PAYLOAD,2023-08-21 01:24:25,15.08842483,0.0001183,53.2148,86.162,76.3422,283.7702,9.551e-05,1.233e-05,0.0,0 STARLINK-4422,1 53639U 22104BD  23233.05863204  .00001233  00000-0  95510-4 0  9999,2 53639  53.2148  86.1620 0001183  76.3422 283.7702 15.08842483 54563,6917.873,95.437,540.556,538.919,0.0
53639.0,STARLINK-4422,PAYLOAD,2023-08-22 13:58:18,15.08838739,0.0001411,53.2156,79.3236,76.9837,283.1312,2.3889e-05,9.2e-07,0.0,0 STARLINK-4422,1 53639U 22104BD  23234.58215825  .00000092  00000-0  23889-4 0  9990,2 53639  53.2156  79.3236 0001411  76.9837 283.1312 15.08838739 54794,6917.884,95.438,540.725,538.773,0.0
53639.0,STARLINK-4422,PAYLOAD,2023-08-24 13:39:52,15.08837294,0.0001326,53.2173,70.4005,90.3539,269.7605,0.00034913,5.272e-05,0.0,0 STARLINK-4422,1 53639U 22104BD  23236.56936101  .00005272  00000-0  34913-3 0  9991,2 53639  53.2173  70.4005 0001326  90.3539 269.7605 15.08837294 55097,6917.889,95.438,540.671,538.836,0.0
53639.0,STARLINK-4422,PAYLOAD,2023-08-24 23:12:10,15.08852208,0.0001382,53.2198,68.6163,77.7814,282.3333,0.00037684,5.717e-05,0.0,0 STARLINK-4422,1 53639U 22104BD  23236.96679156  .00005717  00000-0  37684-3 0  9991,2 53639  53.2198  68.6163 0001382  77.7814 282.3333 15.08852208 55153,6917.843,95.437,540.664,538.752,0.0
